Suburb,Address,Type,Date,Bedroom,Bathroom,Landsize,BuildingArea,YearBuilt,Latitude,Longtitude,ParkingArea,Price
Camberwell,4/445 Camberwell Rd,t,10/12/2016,4.0,2.0,221.0,146,1997.0,-37.838,145.0651,Indoor,
Camberwell,34 Seymour Gr,h,10/12/2016,5.0,2.0,814.0,278,1900.0,-37.8356,145.0582,Parkade,
Camberwell,11 Sunnyside Av,h,10/12/2016,,,,,,,,Underground,3775000.0
Camberwell,4 Range St,h,12/6/2016,3.0,1.0,821.0,105,1925.0,-37.8459,145.0644,Underground,2000000.0
Camberwell,163 Through Rd,h,12/6/2016,2.0,1.0,427.0,115,1938.0,-37.8367,145.0934,Outdoor Stall,1302000.0
Camberwell,1/32 Allambee Av,u,12/11/2016,,,,,,,,Indoor,753000.0
Camberwell,2/37 Donna Buang St,h,12/11/2016,3.0,2.0,244.0,,,-37.8446,145.068,Parkade,1430000.0
Camberwell,2/1 Gavan St,t,12/11/2016,2.0,3.0,143.0,100,2014.0,-37.8478,145.0953,Underground,
Camberwell,13 Grace St,h,12/11/2016,3.0,1.0,544.0,160,1930.0,-37.8436,145.0581,Outdoor Stall,1622000.0
Camberwell,7/5 Holly St,u,12/11/2016,2.0,1.0,0.0,77,1965.0,-37.8255,145.0592,Parking Pad,502000.0
Camberwell,7 Love St,h,12/11/2016,3.0,2.0,648.0,,,-37.8453,145.0745,Carport,
Camberwell,13 Tyrone St,h,12/11/2016,5.0,2.0,676.0,288,1930.0,-37.8442,145.0729,Detached Garage,
Camberwell,3/220 Warrigal Rd,u,12/11/2016,2.0,1.0,896.0,77,1960.0,-37.8479,145.0958,Attached Garage,435000.0
Camberwell,6/9 Eddy St,u,1/7/2017,2.0,1.0,131.0,76,1975.0,-37.84716,145.07351,Indoor,677000.0
Camberwell,31a Morey St,h,1/7/2017,,,,,,,,Parkade,
Camberwell,2/576 Riversdale Rd,u,1/7/2017,2.0,1.0,0.0,,,-37.83202,145.06095,Carport,670000.0
Camberwell,4/924 Toorak Rd,t,1/7/2017,3.0,2.0,227.0,223,2006.0,-37.84689,145.05863,Detached Garage,1320000.0
Camberwell,1/25 Doonkuna Av,h,3/6/2017,,,,,,,,Indoor,1041000.0
Camberwell,4 Fairfield Av,h,3/6/2017,,,,,,,,Carport,2960000.0
Camberwell,64 Glyndon Rd,h,3/6/2017,4.0,2.0,984.0,,1930.0,-37.84,145.07853,Detached Garage,3050000.0
Camberwell,8/101 Wattle Valley Rd,t,3/6/2017,3.0,2.0,350.0,,,-37.8356,145.08005,Attached Garage,1171000.0
Camberwell,78 Bowen St,h,3/9/2017,4.0,3.0,947.0,,,-37.84457,145.06218,Carport,4060000.0
Camberwell,653 Burke Rd,h,3/9/2017,5.0,3.0,,,,-37.83562,145.05566,Detached Garage,3950000.0
Doncaster,329 George St,h,3/9/2016,4.0,4.0,1157.0,,,-37.7779,145.127,Indoor,1924500.0
Doncaster,9 Lauer St,h,3/9/2016,,,,,,,,Parkade,1416000.0
Doncaster,2/20 Wetherby Rd,u,3/9/2016,2.0,1.0,65.0,,1975.0,-37.7887,145.1438,Carport,492500.0
Doncaster,5 Boyd St,h,3/12/2016,3.0,1.0,727.0,123,1970.0,-37.7942,145.1218,Attached Garage,1403000.0
Doncaster,20 Finlayson St,h,3/12/2016,4.0,2.0,725.0,,,-37.7891,145.1073,Indoor,1408000.0
Doncaster,39 Frederick St,t,3/12/2016,4.0,2.0,242.0,,,-37.7915,145.1258,Parkade,855000.0
Doncaster,19 Hanke Rd,h,3/12/2016,3.0,1.0,638.0,115,1970.0,-37.7912,145.1248,Underground,1450000.0
Doncaster,47 Roseland Gr,h,3/12/2016,5.0,2.0,660.0,,,-37.7791,145.1328,Outdoor Stall,1461800.0
Doncaster,33 Thiele St,h,3/12/2016,4.0,1.0,658.0,138,1975.0,-37.7827,145.1358,Parking Pad,1396000.0
Doncaster,2/63 Whittens La,t,3/12/2016,3.0,2.0,0.0,,,-37.7914,145.131,Carport,
Doncaster,1/3 Katrina St,t,4/2/2016,,,,,,,,Detached Garage,1320000.0
Doncaster,6 Acheron St,h,4/6/2016,5.0,3.0,652.0,481,1970.0,-37.7909,145.1149,Carport,
Doncaster,18 Buckingham Cr,h,4/6/2016,,,,,,,,Detached Garage,1390000.0
Doncaster,8/3 Carnarvon St,u,4/6/2016,3.0,2.0,0.0,119,2007.0,-37.7862,145.1235,Attached Garage,700000.0
Doncaster,28 Larkspur Av,h,4/6/2016,,,,,,,,Indoor,880000.0
Doncaster,402/18 Berkeley St,u,6/8/2016,2.0,2.0,0.0,100,2011.0,-37.7856,145.128,Indoor,
Doncaster,1a Morris St,h,6/8/2016,4.0,2.0,336.0,176,2007.0,-37.794,145.1178,Parkade,1152000.0
Doncaster,5 Arnold Gr,h,7/5/2016,3.0,2.0,925.0,218,1960.0,-37.7869,145.1183,Indoor,1868000.0
Doncaster,72 Board St,h,7/5/2016,4.0,3.0,655.0,,,-37.7798,145.1319,Parkade,920000.0
Doncaster,22 Saxon St,h,7/5/2016,4.0,2.0,317.0,194,1995.0,-37.7815,145.1279,Underground,1050000.0
Doncaster,37 Tullamore Av,h,7/5/2016,,,,,,,,Outdoor Stall,1550000.0
Doncaster,26 Brendan Av,h,7/11/2016,,,,,,,,Detached Garage,1605000.0
Doncaster,3/37 Highview Dr,u,7/11/2016,3.0,2.0,299.0,135,2001.0,-37.7929,145.1338,Attached Garage,910000.0
Doncaster,3 Maralee Pl,h,7/11/2016,3.0,1.0,1073.0,143,1960.0,-37.7772,145.1157,Indoor,1850000.0
Doncaster,41 Pettys La,h,7/11/2016,4.0,3.0,740.0,185,1985.0,-37.7912,145.1127,Parkade,1225000.0
Doncaster,33 Somerville St,h,7/11/2016,4.0,2.0,716.0,155,1965.0,-37.778,145.1173,Carport,1316000.0
Doncaster,6/14 Firth St,u,8/10/2016,2.0,1.0,0.0,,,-37.7868,145.1223,Outdoor Stall,400000.0
Doncaster,36 Henry St,h,8/10/2016,5.0,3.0,656.0,320,1985.0,-37.7752,145.1317,Carport,1400000.0
Doncaster,1/10 Morrison Cr,h,8/10/2016,,,,,,,,Detached Garage,736000.0
Doncaster,20 Wilsons Rd,h,8/10/2016,3.0,2.0,836.0,195,1970.0,-37.7923,145.119,Attached Garage,
Doncaster,49 Burgundy Dr,h,10/9/2016,5.0,5.0,669.0,395,2016.0,-37.7808,145.1185,Indoor,2168000.0
Doncaster,1/77 Ayr St,u,10/12/2016,,,,,,,,Attached Garage,828000.0
Doncaster,11A Balfour St,t,10/12/2016,,,,,,,,Indoor,945000.0
Doncaster,35 Bordeaux St,h,10/12/2016,4.0,2.0,655.0,170,1970.0,-37.782,145.1194,Parkade,1430000.0
Doncaster,4 Colston Cl,h,10/12/2016,4.0,2.0,780.0,,,-37.7955,145.139,Carport,1250000.0
Doncaster,5/333 George St,u,10/12/2016,3.0,2.0,203.0,109,1986.0,-37.7776,145.1267,Detached Garage,772000.0
Doncaster,1 Graeme Cl,h,10/12/2016,4.0,3.0,507.0,,,-37.7738,145.1308,Attached Garage,2000000.0
Doncaster,22/222 Williamsons Rd,t,10/12/2016,,,,,,,,Carport,550000.0
Doncaster,4 Judith Ct,h,12/6/2016,4.0,3.0,882.0,183,1960.0,-37.7801,145.1295,Indoor,
Doncaster,28 Dunoon St,h,12/11/2016,4.0,2.0,806.0,170,1975.0,-37.7939,145.1392,Indoor,1468000.0
Doncaster,9 Gilmore Rd,h,12/11/2016,3.0,1.0,720.0,,1960.0,-37.79,145.1309,Parkade,1275000.0
Doncaster,2 Ibis St,h,12/11/2016,4.0,1.0,657.0,,,-37.7856,145.1374,Carport,1200000.0
Doncaster,45 Koolkuna Av,h,12/11/2016,,,,,,,,Detached Garage,
Doncaster,1 Sentinel Wy,t,12/11/2016,,,,,,,,Attached Garage,1011500.0
Doncaster,3/36 Westfield Dr,u,12/11/2016,3.0,2.0,0.0,,,-37.7826,145.1274,Indoor,655000.0
Doncaster,13 Carnarvon St,t,1/7/2017,3.0,2.0,0.0,,,-37.78653,145.12363,Attached Garage,840000.0
Doncaster,2/4 Frank St,t,1/7/2017,,,,,,,,Indoor,945000.0
Doncaster,33 Clay Dr,h,3/6/2017,4.0,4.0,1072.0,328,1960.0,-37.79094,145.12733,Parking Pad,2600000.0
Doncaster,192 George St,h,3/6/2017,3.0,1.0,645.0,,,-37.77969,145.14033,Carport,1285000.0
Doncaster,21 Hampshire Rd,h,3/6/2017,3.0,1.0,647.0,127,1965.0,-37.79436,145.13869,Detached Garage,1360000.0
Doncaster,34 Henry St,h,3/6/2017,5.0,2.0,757.0,335,1980.0,-37.77536,145.13163,Attached Garage,1600000.0
Doncaster,128 High St,h,3/6/2017,5.0,2.0,768.0,,,-37.77934,145.11344,Indoor,1370000.0
Doncaster,3/41 Queens Av,t,3/6/2017,,,,,,,,Parkade,882000.0
Doncaster,7 Ambrose St,h,3/9/2017,4.0,2.0,652.0,218,1970.0,-37.78145,145.13598,Outdoor Stall,1375000.0
Doncaster,30 Braeside Dr,h,3/9/2017,,,,,,,,Carport,1400000.0
Doncaster,1/728 Doncaster Rd,t,3/9/2017,3.0,2.0,,,2000.0,-37.78717,145.13392,Detached Garage,
Doncaster,60 High St,h,3/9/2017,4.0,2.0,,248,1975.0,-37.7832,145.10931,Attached Garage,1275000.0
Doncaster,13 Winbrook Ct,h,3/9/2017,5.0,3.0,630.0,,,-37.78151,145.12515,Indoor,1820000.0
Doncaster,22 Glenfern Av,h,4/3/2017,,,,,,,,Detached Garage,1100000.0
Doncaster,28 Glenfern Av,h,4/3/2017,,,,,,,,Attached Garage,
Doncaster,1/4 Gregory Ct,t,4/3/2017,,,,,,,,Indoor,1231000.0
Doncaster,12 Murillo Ct,h,4/3/2017,5.0,3.0,681.0,,,-37.7722,145.1309,Parkade,1535000.0
Doncaster,2 Nola St,h,4/3/2017,3.0,2.0,819.0,173,1970.0,-37.781,145.1036,Underground,1125000.0
Doncaster,24 Botanic Dr,h,4/11/2017,4.0,2.0,676.0,,1970.0,-37.7786,145.136,Detached Garage,1325000.0
Doncaster,172 George St,h,4/11/2017,5.0,2.0,770.0,230,1980.0,-37.78,145.1425,Attached Garage,1350000.0
Doncaster,1/58 Ayr St,t,6/5/2017,3.0,2.0,318.0,,,-37.7827,145.1029,Carport,
Doncaster,9a Bayley Gr,h,6/5/2017,,,,,,,,Detached Garage,840000.0
Doncaster,2/25 Clay Dr,t,6/5/2017,2.0,1.0,85.0,114,2009.0,-37.7901,145.1275,Attached Garage,
Doncaster,3/37 Queens Av,u,6/5/2017,,,,,,,,Indoor,752000.0
Doncaster,65 Winston Dr,h,7/10/2017,4.0,2.0,,183,1975.0,-37.77928,145.13087,Attached Garage,1380000.0